0 TELSTAR 4 (TELSTAR 402R)
1 23670U 95049A   13282.33907496 -.00000200  00000-0  10000-3 0  4938
2 23670 008.7804 050.9482 0002786 093.1537 266.8962 01.00276671 66085
0 TELSTAR 4 (TELSTAR 402R)
1 23670U 95049A   13285.33068867 -.00000208  00000-0  10000-3 0  4940
2 23670 008.7858 050.9143 0002671 095.3884 264.6658 01.00276078 66113
0 TELSTAR 4 (TELSTAR 402R)
1 23670U 95049A   13288.32228120 -.00000210  00000-0  10000-3 0  4956
2 23670 008.7914 050.8807 0002628 097.7475 262.2947 01.00275458 66145
0 TELSTAR 4 (TELSTAR 402R)
1 23670U 95049A   13290.31666535  .00000000  00000-0  10000-3 0  4972
2 23670 008.7971 050.8569 0002101 136.1168 223.8982 01.00271092 66159
0 TELSTAR 4 (TELSTAR 402R)
1 23670U 95049A   13291.31382401 -.00000207  00000-0  10000-3 0  4969
2 23670 008.7971 050.8465 0002693 100.0596 259.9485 01.00274855 66175
0 TELSTAR 4 (TELSTAR 402R)
1 23670U 95049A   13294.30540904 -.00000203  00000-0  10000-3 0  4972
2 23670 008.8030 050.8118 0002845 100.6065 259.3807 01.00274285 66206
